NORAD_CAT_ID,OBJECT_NAME,OBJECT_TYPE,EPOCH,MEAN_MOTION,ECCENTRICITY,INCLINATION,RA_OF_ASC_NODE,ARG_OF_PERICENTER,MEAN_ANOMALY,BSTAR,MEAN_MOTION_DOT,MEAN_MOTION_DDOT,TLE_LINE0,TLE_LINE1,TLE_LINE2,SEMIMAJOR_AXIS,PERIOD,APOGEE,PERIGEE,DECAYED
54791.0,STARLINK-5425,PAYLOAD,2024-08-07 02:40:17,15.08865799,0.0001493,53.2166,110.895,66.2711,293.8437,0.0020717,0.00032861,0.0,0 STARLINK-5425,1 54791U 22175AK  24220.11131067  .00032861  00000-0  20717-2 0  9992,2 54791  53.2166 110.8950 0001493  66.2711 293.8437 15.08865799 90479,6917.802,95.436,540.699,538.634,0.0
54791.0,STARLINK-5425,PAYLOAD,2024-08-07 20:09:31,15.08868685,0.0001699,53.2168,107.6206,75.1395,284.9785,0.0011303,0.00017761,0.0,0 STARLINK-5425,1 54791U 22175AK  24220.83994342  .00017761  00000-0  11303-2 0  9997,2 54791  53.2168 107.6206 0001699  75.1395 284.9785 15.08868685 90580,6917.793,95.436,540.833,538.482,0.0
54791.0,STARLINK-5425,PAYLOAD,2024-08-08 02:31:03,15.08872002,0.0001635,53.2167,106.4381,64.4367,295.6794,0.0008439,0.0001318,0.0,0 STARLINK-5425,1 54791U 22175AK  24221.10490009  .00013180  00000-0  84390-3 0  9997,2 54791  53.2167 106.4381 0001635  64.4367 295.6794 15.08872002 92781,6917.783,95.436,540.779,538.517,0.0
54791.0,STARLINK-5425,PAYLOAD,2024-08-08 20:00:17,15.08856084,0.0001511,53.216,103.1565,117.2723,242.8423,0.00055335,8.533e-05,0.0,0 STARLINK-5425,1 54791U 22175AK  24221.83353446  .00008533  00000-0  55335-3 0  9993,2 54791  53.2160 103.1565 0001511 117.2723 242.8423 15.08856084 90736,6917.831,95.437,540.742,538.651,0.0
54791.0,STARLINK-5425,PAYLOAD,2024-08-08 23:11:03,15.08854634,0.0001028,53.2145,102.5658,80.2363,279.8745,-9.5155e-05,-1.802e-05,0.0,0 STARLINK-5425,1 54791U 22175AK  24221.96601276 -.00001802  00000-0 -95155-4 0  9993,2 54791  53.2145 102.5658 0001028  80.2363 279.8745 15.08854634 92915,6917.836,95.437,540.412,538.99,0.0
54791.0,STARLINK-5425,PAYLOAD,2024-08-09 08:43:21,15.08865743,0.0001417,53.2196,100.7854,81.0196,279.0956,0.0001585,2.237e-05,0.0,0 STARLINK-5425,1 54791U 22175AK  24222.36344463  .00002237  00000-0  15850-3 0  9994,2 54791  53.2196 100.7854 0001417  81.0196 279.0956 15.08865743 92979,6917.802,95.436,540.647,538.686,0.0
54791.0,STARLINK-5425,PAYLOAD,2024-08-09 19:51:05,15.08825043,0.0001044,53.2137,98.6996,63.2642,296.8457,-0.00026268,-4.464e-05,0.0,0 STARLINK-5425,1 54791U 22175AK  24222.82714477 -.00004464  00000-0 -26268-3 0  9992,2 54791  53.2137  98.6996 0001044  63.2642 296.8457 15.08825043 90880,6917.926,95.439,540.513,539.069,0.0
54791.0,STARLINK-5425,PAYLOAD,2024-08-09 21:26:28,15.08828119,0.0001435,53.216,98.4041,92.4237,267.6919,-0.00017799,-3.119e-05,0.0,0 STARLINK-5425,1 54791U 22175AK  24222.89338385 -.00003119  00000-0 -17799-3 0  9994,2 54791  53.2160  98.4041 0001435  92.4237 267.6919 15.08828119 93051,6917.917,95.438,540.774,538.789,0.0
54791.0,STARLINK-5425,PAYLOAD,2024-08-09 23:01:50,15.08842951,9.73e-05,53.215,98.1055,79.9802,280.13,-4.3849e-06,-3.58e-06,0.0,0 STARLINK-5425,1 54791U 22175AK  24222.95961623 -.00000358  00000-0 -43849-5 0  9997,2 54791  53.2150  98.1055 0000973  79.9802 280.1300 15.08842951 90901,6917.871,95.437,540.409,539.063,0.0
54791.0,STARLINK-5425,PAYLOAD,2024-08-10 22:52:37,15.08844587,0.0001084,53.2161,93.6458,92.4849,267.6267,0.00010125,1.324e-05,0.0,0 STARLINK-5425,1 54791U 22175AK  24223.95321734  .00001324  00000-0  10125-3 0  9992,2 54791  53.2161  93.6458 0001084  92.4849 267.6267 15.08844587 93211,6917.866,95.437,540.481,538.981,0.0
54791.0,STARLINK-5425,PAYLOAD,2024-08-11 00:28:01,15.08845804,0.0001165,53.2159,93.3484,105.6325,254.4796,0.00018964,2.732e-05,0.0,0 STARLINK-5425,1 54791U 22175AK  24224.01945626  .00002732  00000-0  18964-3 0  9995,2 54791  53.2159  93.3484 0001165 105.6325 254.4796 15.08845804 91065,6917.863,95.437,540.534,538.922,0.0
54791.0,STARLINK-5425,PAYLOAD,2024-08-11 08:24:56,15.08861619,0.0001358,53.2173,91.8633,68.4754,291.6383,0.00050738,7.801e-05,0.0,0 STARLINK-5425,1 54791U 22175AK  24224.35065062  .00007801  00000-0  50738-3 0  9996,2 54791  53.2173  91.8633 0001358  68.4754 291.6383 15.08861619 91119,6917.814,95.436,540.619,538.74,0.0
54791.0,STARLINK-5425,PAYLOAD,2024-08-12 08:15:44,15.08847284,0.0002962,53.2163,87.4091,76.1288,284.0034,0.00023406,3.439e-05,0.0,0 STARLINK-5425,1 54791U 22175AK  24225.34426104  .00003439  00000-0  23406-3 0  9999,2 54791  53.2163  87.4091 0002962  76.1288 284.0034 15.08847284 91264,6917.858,95.437,541.772,537.674,0.0
54791.0,STARLINK-5425,PAYLOAD,2024-08-12 14:37:16,15.08855781,0.0002313,53.215,86.22,76.9605,283.1645,0.00032871,4.949e-05,0.0,0 STARLINK-5425,1 54791U 22175AK  24225.60921425  .00004949  00000-0  32871-3 0  9997,2 54791  53.2150  86.2200 0002313  76.9605 283.1645 15.08855781 93463,6917.832,95.437,541.297,538.097,0.0
54791.0,STARLINK-5425,PAYLOAD,2024-08-12 20:58:48,15.08861364,0.0001162,53.2163,85.0239,95.4931,264.6194,0.00048049,7.372e-05,0.0,0 STARLINK-5425,1 54791U 22175AK  24225.87416703  .00007372  00000-0  48049-3 0  9991,2 54791  53.2163  85.0239 0001162  95.4931 264.6194 15.08861364 93507,6917.815,95.436,540.484,538.876,0.0
54791.0,STARLINK-5425,PAYLOAD,2024-08-13 08:06:30,15.08848743,7.66e-05,53.213,82.9457,35.8121,324.2923,0.00021334,3.11e-05,0.0,0 STARLINK-5425,1 54791U 22175AK  24226.33784839  .00003110  00000-0  21334-3 0  9995,2 54791  53.2130  82.9457 0000766  35.8121 324.2923 15.08848743 91414,6917.854,95.437,540.249,539.189,0.0
54791.0,STARLINK-5425,PAYLOAD,2024-08-13 14:28:05,15.08774496,0.0002992,53.2188,81.7588,73.9285,286.2036,-0.001403,-0.0002251,0.0,0 STARLINK-5425,1 54791U 22175AK  24226.60284370 -.00022510  00000-0 -14030-2 0  9991,2 54791  53.2188  81.7588 0002992  73.9285 286.2036 15.08774496 93615,6918.081,95.442,542.016,537.876,0.0
54791.0,STARLINK-5425,PAYLOAD,2024-08-13 20:49:38,15.08796895,0.0004282,53.2093,80.565,81.8857,278.262,-0.00069897,-0.00011385,0.0,0 STARLINK-5425,1 54791U 22175AK  24226.86780683 -.00011385  00000-0 -69897-3 0  9997,2 54791  53.2093  80.5650 0004282  81.8857 278.2620 15.08796895 91495,6918.012,95.44,542.839,536.915,0.0
54791.0,STARLINK-5425,PAYLOAD,2024-08-14 00:00:24,15.08820504,0.0001716,53.2157,79.9682,78.171,281.9474,0.00035521,5.367e-05,0.0,0 STARLINK-5425,1 54791U 22175AK  24227.00028134  .00005367  00000-0  35521-3 0  9998,2 54791  53.2157  79.9682 0001716  78.1710 281.9474 15.08820504 91515,6917.94,95.439,540.992,538.618,0.0
54791.0,STARLINK-5425,PAYLOAD,2024-08-14 19:05:01,15.0885962,0.0002082,53.2186,76.4049,92.676,267.447,0.0010078,0.00015796,0.0,0 STARLINK-5425,1 54791U 22175AK  24227.79515421  .00015796  00000-0  10078-2 0  9990,2 54791  53.2186  76.4049 0002082  92.6760 267.4470 15.08859620 91638,6917.82,95.436,541.126,538.245,0.0
54791.0,STARLINK-5425,PAYLOAD,2024-08-14 20:40:24,15.08871434,0.0001803,53.2175,76.1034,91.7378,268.3821,0.001726,0.00027312,0.0,0 STARLINK-5425,1 54791U 22175AK  24227.86139514  .00027312  00000-0  17260-2 0  9990,2 54791  53.2175  76.1034 0001803  91.7378 268.3821 15.08871434 93800,6917.784,95.436,540.897,538.402,0.0
54791.0,STARLINK-5425,PAYLOAD,2024-08-14 22:15:47,15.0887407,0.0001753,53.2172,75.8054,86.4343,273.6849,0.0013352,0.00021045,0.0,0 STARLINK-5425,1 54791U 22175AK  24227.92762923  .00021045  00000-0  13352-2 0  9998,2 54791  53.2172  75.8054 0001753  86.4343 273.6849 15.08874070 91651,6917.776,95.435,540.854,538.429,0.0
54791.0,STARLINK-5425,PAYLOAD,2024-08-15 20:31:10,15.08857148,0.0001779,53.2172,71.6417,92.0875,268.0321,0.00022089,3.231e-05,0.0,0 STARLINK-5425,1 54791U 22175AK  24228.85498545  .00003231  00000-0  22089-3 0  9992,2 54791  53.2172  71.6417 0001779  92.0875 268.0321 15.08857148 91794,6917.828,95.436,540.924,538.462,0.0
54791.0,STARLINK-5425,PAYLOAD,2024-08-16 06:03:29,15.08854732,9.07e-05,53.2178,69.8601,79.6952,280.4143,2.4243e-05,9.8e-07,0.0,0 STARLINK-5425,1 54791U 22175AK  24229.25242101  .00000098  00000-0  24243-4 0  9995,2 54791  53.2178  69.8601 0000907  79.6952 280.4143 15.08854732 94017,6917.835,95.437,540.328,539.073,0.0
54791.0,STARLINK-5425,PAYLOAD,2024-08-16 23:32:44,15.08835669,0.0001234,53.2176,66.5896,95.3589,264.7544,-0.00015307,-2.723e-05,0.0,0 STARLINK-5425,1 54791U 22175AK  24229.98106718 -.00002723  00000-0 -15307-3 0  9997,2 54791  53.2176  66.5896 0001234  95.3589 264.7544 15.08835669 91969,6917.894,95.438,540.612,538.905,0.0
54791.0,STARLINK-5425,PAYLOAD,2024-08-17 23:23:30,15.08847829,0.0001189,53.2169,62.1303,98.483,261.6296,6.7317e-05,7.84e-06,0.0,0 STARLINK-5425,1 54791U 22175AK  24230.97466258  .00000784  00000-0  67317-4 0  9998,2 54791  53.2169  62.1303 0001189  98.4830 261.6296 15.08847829 92117,6917.856,95.437,540.544,538.899,0.0
54791.0,STARLINK-5425,PAYLOAD,2024-08-18 20:03:31,15.08845504,0.0001703,53.218,58.2617,87.0541,273.0646,0.00011149,1.487e-05,0.0,0 STARLINK-5425,1 54791U 22175AK  24231.83578656  .00001487  00000-0  11149-3 0  9992,2 54791  53.2180  58.2617 0001703  87.0541 273.0646 15.08845504 92247,6917.864,95.437,540.907,538.55,0.0
54791.0,STARLINK-5425,PAYLOAD,2024-08-19 05:35:50,15.08849033,0.0001766,53.2185,56.4764,81.7842,278.335,0.00014137,1.963e-05,0.0,0 STARLINK-5425,1 54791U 22175AK  24232.23322376  .00001963  00000-0  14137-3 0  9992,2 54791  53.2185  56.4764 0001766  81.7842 278.3350 15.08849033 94466,6917.853,95.437,540.939,538.496,0.0
54791.0,STARLINK-5425,PAYLOAD,2024-08-19 21:29:42,15.08834823,0.0001939,53.2182,53.5023,84.704,275.4173,-4.5355e-05,-1.01e-05,0.0,0 STARLINK-5425,1 54791U 22175AK  24232.89563287 -.00001010  00000-0 -45355-4 0  9994,2 54791  53.2182  53.5023 0001939  84.7040 275.4173 15.08834823 92408,6917.896,95.438,541.103,538.42,0.0
54791.0,STARLINK-5425,PAYLOAD,2024-08-20 11:48:10,15.08841652,0.0001878,53.2185,50.8274,95.246,264.8747,9.6783e-05,1.253e-05,0.0,0 STARLINK-5425,1 54791U 22175AK  24233.49179020  .00001253  00000-0  96783-4 0  9997,2 54791  53.2185  50.8274 0001878  95.2460 264.8747 15.08841652 94650,6917.875,95.437,541.04,538.441,0.0
